236P/LINEAR,e,16.3544,245.5690,119.3763,3.726881,0.1369890,0.50939744,292.6438,10/01.0/2023,2000,g 14.0,4.0
# From MPEC 2023-SQ0
237P/LINEAR,e,14.0166,245.3597,25.2668,3.510164,0.1498694,0.43390482,20.8783,10/01.0/2023,2000,g 14.5,2.0
# From MPEC 2022-YN2
238P/Read,e,1.2640,51.6275,324.2141,3.165444,0.1750056,0.25132477,84.4597,10/01.0/2023,2000,g 14.5,4.0
# From MPEC 2021-F20
239P/LINEAR,e,11.3068,255.9420,220.3444,4.466437,0.1044148,0.63075185,180.1635,10/01.0/2023,2000,g 17.5,2.0
# From MPEC 2023-CD7
240P/NEAT,e,23.5354,74.9135,351.9792,3.862996,0.1298129,0.45016466,254.7350,10/01.0/2023,2000,g 11.0,4.0
# From MPEC 2022-J42
241P/LINEAR,e,21.0979,305.4881,111.4714,4.923446,0.0902195,0.61047174,71.8958,10/01.0/2023,2000,g 13.5,4.0
# From MPEC 2023-SQ0
242P/Spahr,e,32.4878,180.3788,244.9877,5.519789,0.0760012,0.28061355,325.7668,10/01.0/2023,2000,g  8.0,4.0
# From MPEC 2022-K19
243P/NEAT,e,7.6426,87.6539,283.6291,3.829052,0.1315429,0.36065570,244.4957,10/01.0/2023,2000,g 12.5,4.0
# From MPEC 2023-J29
244P/Scotti,e,2.2591,354.0019,93.1972,4.898644,0.0909055,0.19962906,28.8185,10/01.0/2023,2000,g  9.0,4.0
# From MPEC 2022-CN4
245P/WISE,e,21.1814,316.8885,316.5969,4.048899,0.1209759,0.45580099,249.6173,10/01.0/2023,2000,g 14.0,4.0
# From MPEC 2023-R20
246P/NEAT,e,16.3221,76.6147,179.6853,4.051929,0.1208402,0.29025980,113.9553,10/01.0/2023,2000,g 10.5,4.0
# From MPEC 2021-F20
247P/LINEAR,e,13.6594,54.0132,47.4237,3.966495,0.1247652,0.62506960,220.1092,10/01.0/2023,2000,g 16.5,2.0
# From MPC 75730
248P/Gibbs,e,6.3513,207.8242,209.8919,5.987751,0.0672680,0.63931944,311.9138,10/01.0/2023,2000,g 14.0,4.0
# From MPEC 2022-YN2
249P/LINEAR,e,8.3855,239.0520,65.7565,2.764042,0.2144801,0.81947936,254.9752,10/01.0/2023,2000,g 15.5,4.0
# From MPC110497
250P/Larson,e,13.1546,73.3051,46.0240,3.771945,0.1345414,0.39870911,280.0090,10/01.0/2023,2000,g 14.5,4.0
# From MPC104795
251P/LINEAR,e,23.3873,219.3230,31.2495,3.513805,0.1496365,0.50446078,339.7618,10/01.0/2023,2000,g 16.5,2.0
# From MPEC 2021-S45
252P/LINEAR,e,10.4145,190.9106,343.3961,3.051267,0.1849200,0.67085534,150.2261,10/01.0/2023,2000,g 17.5,4.0
# From MPEC 2020-FB5
253P/PANSTARRS,e,4.9450,146.9131,230.7290,3.463127,0.1529331,0.41462675,300.9839,10/01.0/2023,2000,g 14.5,4.0
# From MPEC 2023-FK0
254P/McNaught,e,32.5572,129.1879,219.7158,4.617373,0.0993371,0.31937936,108.8427,10/01.0/2023,2000,g 11.0,4.0
# From NK 2214
255P/Levy,e,13.3968,275.6430,186.0290,2.942420,0.1952752,0.71173089,75.8441,10/01.0/2023,2000,g  9.0,4.0
# From MPEC 2023_O39
256P/LINEAR,e,27.6218,81.3271,124.1741,4.638731,0.0986519,0.41790544,20.0108,10/01.0/2023,2000,g 14.0,2.0
# From MPEC 2023-A50
257P/Catalina,e,20.2199,207.7118,117.7875,3.765397,0.1348925,0.42961084,150.5025,10/01.0/2023,2000,g 11.5,4.0
# From MPEC 2021-U31
258P/PANSTARRS,e,6.7484,126.2327,25.6578,4.392315,0.1070690,0.20867616,128.5851,10/01.0/2023,2000,g 13.0,4.0
# From MPC106349
259P/Garradd,e,15.8984,51.3709,257.5689,2.728901,0.2186363,0.33885314,131.1671,10/01.0/2023,2000,g 15.5,4.0
# From MPEC 2022-O01
260P/McNaught,e,15.0548,349.3478,18.4526,3.623347,0.1429023,0.60926825,211.6056,10/01.0/2023,2000,g 13.5,4.0
# From MPEC 2021-J28
261P/Larson,e,6.0718,291.0819,67.3199,3.490393,0.1511446,0.42321958,236.3570,10/01.0/2023,2000,g 14.0,4.0
# From MPC 82322
262P/McNaught-Russell,e,29.2795,217.8886,171.0500,6.870339,0.0547314,0.81642088,216.0891,10/01.0/2023,2000,g 13.5,4.0
# From MPEC 2023_O39
263P/Gibbs,e,11.5223,105.5036,35.0420,3.041626,0.1857999,0.59359334,45.2264,10/01.0/2023,2000,g 18.0,4.0
# From MPC114608
264P/Larsen,e,25.9495,219.6654,345.2597,3.896987,0.1281182,0.37275391,199.2721,10/01.0/2023,2000,g 13.0,4.0
# From MPC 79870
265P/LINEAR,e,14.3607,342.9551,33.4888,4.257994,0.1121751,0.64750941,108.1074,10/01.0/2023,2000,g 14.5,4.0
# From MPEC 2021-F20
266P/Christensen,e,3.4270,4.9790,97.6746,3.530322,0.1485876,0.34033259,187.1058,10/01.0/2023,2000,g 14.7,4.0
# From MPC114608
267P/LONEOS,e,6.1430,228.6031,114.2211,3.209663,0.1714016,0.61429176,324.5544,10/01.0/2023,2000,g 19.5,4.0
# From MPC 92277
268P/Bernardi,e,15.6290,124.9581,359.8690,4.635578,0.0987525,0.47362839,316.1806,10/01.0/2023,2000,g 14.0,4.0
# From MPEC 2023-J29
269P/Jedicke,e,7.0836,241.7655,225.6603,7.064860,0.0524866,0.43232078,172.4605,10/01.0/2023,2000,g 10.0,4.0
# From MPC 88332
270P/Gehrels,e,2.9249,223.0328,209.8015,6.655286,0.0574056,0.46965040,215.8506,10/01.0/2023,2000,g  8.0,4.0
# From MPC 92277
271P/van Houten-Lemmon,e,6.8723,9.3405,36.4484,7.033841,0.0528342,0.39609583,196.6858,10/01.0/2023,2000,g 11.0,4.0
# From MPEC 2023-D41
272P/NEAT,e,18.0740,109.4532,27.8851,4.461700,0.1045812,0.45500121,46.1186,10/01.0/2023,2000,g 16.0,2.0
# From MPC 82723
273P/Pons-Gambart,e,36.6689,320.4140,20.3317,32.02933,0.0054373,0.97412888,0.0000,12/20.5148/2012,2000,g 11.5,4.0
# From MPEC 2023-M14
274P/Tombaugh-Tenagra,e,15.8176,81.3215,38.4686,4.377587,0.1076098,0.43977378,58.1622,10/01.0/2023,2000,g 13.9,4.0
# From MPC 81862
275P/Hermann,e,21.2636,348.7005,173.9477,5.785237,0.0708308,0.71316313,280.3883,10/01.0/2023,2000,g 17.0,4.0
# From MPEC 2023-SQ0
276P/Vorobjov,e,14.8125,211.3398,199.4033,5.330688,0.0800809,0.26868233,324.9288,10/01.0/2023,2000,g 11.5,4.0
# From MPEC 2021-F20
277P/LINEAR,e,16.7837,276.2828,152.3631,3.853438,0.1302961,0.50636651,130.8557,10/01.0/2023,2000,g 15.1,4.0
# From MPEC 2021-S45
278P/McNaught,e,6.6896,15.3309,237.4783,3.676576,0.1398102,0.43839842,155.7457,10/01.0/2023,2000,g 14.0,4.0
# From MPEC 2022-K19
279P/LaSagra,e,5.0498,346.2100,5.8385,3.576229,0.1457358,0.39941676,23.9760,10/01.0/2023,2000,g 14.0,4.0
# From MPEC 2023-J95
280P/Larsen,e,11.7722,131.3792,104.7358,4.528952,0.1022604,0.41704937,5.8593,10/01.0/2023,2000,g 12.5,4.0
# From MPEC 2023-D41
281P/MOSS,e,4.7178,87.1739,26.6863,4.880286,0.0914189,0.17329991,22.0548,10/01.0/2023,2000,g 11.0,4.0
# From MPC133426
282P/,e,5.8118,217.6228,9.2676,4.237497,0.1129900,0.18782165,79.8598,10/01.0/2023,2000,g 13.5,2.0
# From MPEC 2022-K19
283P/Spacewatch,e,14.4570,161.1242,22.1927,4.134293,0.1172471,0.48435445,88.3192,10/01.0/2023,2000,g 16.0,2.0
# From MPEC 2023-D41
284P/McNaught,e,11.8595,144.2670,202.4603,3.676896,0.1397919,0.37512659,104.6359,10/01.0/2023,2000,g 13.0,4.0
# From MPEC 2023-B57
285P/LINEAR,e,25.0374,185.5030,178.3925,4.507250,0.1029999,0.61858499,26.9647,10/01.0/2023,2000,g 15.0,4.0
# From MPEC 2022-X67
286P/Christensen,e,17.0623,283.7391,24.8635,4.109740,0.1182994,0.42654378,59.9409,10/01.0/2023,2000,g 14.0,4.0
# From MPEC 2023-SQ0
287P/Christensen,e,16.3205,139.0410,189.1702,4.164890,0.1159575,0.27146019,10.0555,10/01.0/2023,2000,g 13.5,4.0
# From MPC133426
288P/,e,3.2384,83.1084,280.2529,3.048506,0.1851712,0.20036512,107.0901,10/01.0/2023,2000,g 16.0,2.0
# From MPEC 2023-HD1
289P/Blanpain,e,5.9002,68.8916,9.8462,3.044925,0.1854980,0.68628730,255.8686,10/01.0/2023,2000,g 19.7,4.0
# From MPC 95214
290P/Jager,e,20.0536,302.6822,181.8188,6.216427,0.0635906,0.62765449,225.0441,10/01.0/2023,2000,g 10.5,4.0
# From MPEC 2023-SQ0
291P/NEAT,e,6.3097,237.6593,173.5081,4.535069,0.1020536,0.43435575,15.3034,10/01.0/2023,2000,g 13.0,4.0
# From MPEC 2022-K19
292P/Li,e,24.3066,90.9084,319.5798,6.099896,0.0654215,0.58991741,230.4925,10/01.0/2023,2000,g 12.5,4.0
# From MPEC 2022-L66
293P/Spacewatch,e,9.0607,78.3640,40.9547,3.639807,0.1419340,0.41877955,144.1569,10/01.0/2023,2000,g 14.5,4.0
# From MPEC 2020-SI8
294P/LINEAR,e,18.1636,311.8811,235.4380,3.190815,0.1729226,0.60187597,242.3800,10/01.0/2023,2000,g 15.5,4.0
# From MPEC 2022-K19
295P/LINEAR,e,21.0752,7.4224,72.9241,5.303663,0.0806938,0.61739573,277.2226,10/01.0/2023,2000,g 12.0,4.0
# From MPEC 2021-N06
296P/Garradd,e,25.2717,263.5305,349.9384,3.490050,0.1511669,0.47938688,167.5998,10/01.0/2023,2000,g 14.0,4.0
# From MPC102956
297P/Beshore,e,10.3385,96.4974,135.8584,3.483399,0.1516000,0.31995675,147.2219,10/01.0/2023,2000,g 15.0,4.0
# From MPC114609
298P/Christensen,e,7.8706,52.8143,100.5995,3.589690,0.1449168,0.38627633,162.3604,10/01.0/2023,2000,g 15.0,4.0
# From MPEC 2023-OA6
299P/Catalina-PANSTARRS,e,10.4672,271.5888,323.7200,4.389103,0.1071866,0.28090400,337.2181,10/01.0/2023,2000,g 11.5,4.0
# From MPEC 2023-J95
300P/Catalina,e,5.6746,95.6172,222.9509,2.698684,0.2223187,0.69172712,38.4355,10/01.0/2023,2000,g 16.0,4.0
# From MPC 89014
301P/LINEAR-NEAT,e,10.3358,351.0947,193.5455,5.743618,0.0716021,0.58565744,238.7872,10/01.0/2023,2000,g 13.0,4.0
# From MPEC 2023-N01
302P/Lemmon-PANSTARRS,e,6.0340,121.7210,208.5635,4.271490,0.1116439,0.23007242,301.3859,10/01.0/2023,2000,g 12.5,4.0
# From MPC 92278
303P/NEAT,e,7.0185,347.9904,356.9854,5.042394,0.0870460,0.51075845,284.0446,10/01.0/2023,2000,g 13.5,4.0
# From MPEC 2022-K19
304P/Ory,e,2.6065,58.9401,335.2487,3.150527,0.1762501,0.60102720,201.5749,10/01.0/2023,2000,g 16.5,4.0
# From MPC101100
305P/Skiff,e,11.6665,240.1463,147.3566,4.637891,0.0986787,0.69403465,319.2365,10/01.0/2023,2000,g 18.0,4.0
# From MPC 92278
306P/LINEAR,e,8.3070,341.3794,0.8880,3.124310,0.1784732,0.59294280,240.3413,10/01.0/2023,2000,g 19.0,4.0
# From MPC 92278
307P/LINEAR,e,4.4376,158.1855,222.1669,5.788556,0.0707699,0.67558140,226.4161,10/01.0/2023,2000,g 15.0,4.0
# From MPEC 2022-C56
308P/Lagerkvist-Carsenty,e,4.8531,63.0971,333.6613,6.599247,0.0581383,0.36476396,178.0567,10/01.0/2023,2000,g 13.0,2.0
# From MPEC 2023-RF3
309P/LINEAR,e,17.0237,10.1444,49.9323,4.375123,0.1077007,0.61838597,340.6099,10/01.0/2023,2000,g 15.0,4.0
# From MPEC 2023-SQ0
310P/Hill,e,13.1232,8.9202,31.6168,4.188655,0.1149720,0.42303761,357.3906,10/01.0/2023,2000,g 13.5,4.0
# From MPEC 2023-SQ0
311P/PANSTARRS,e,4.9696,279.1880,144.3211,2.189086,0.3043055,0.11599779,331.6675,10/01.0/2023,2000,g 17.0,4.0
# From MPEC 2021-BE3
312P/NEAT,e,19.7627,144.7072,207.6473,3.470466,0.1524482,0.42743285,167.8226,10/01.0/2023,2000,g 16.0,4.0
# From MPEC 2021-S45
313P/Gibbs,e,10.9801,106.0077,254.8442,3.164161,0.1751121,0.23485116,221.0873,10/01.0/2023,2000,g 15.0,4.0
# From MPC105243
